[{"OBJECT_NAME":"ONEWEB-0642","OBJECT_ID":"2023-029L","EPOCH":"2026-03-20T03:57:49.763520","MEAN_MOTION":13.19724943,"ECCENTRICITY":0.00025476,"INCLINATION":87.9214,"RA_OF_ASC_NODE":322.7215,"ARG_OF_PERICENTER":88.7381,"MEAN_ANOMALY":271.4044,"EPHEMERIS_TYPE":0,"CLASSIFICATION_TYPE":"U","NORAD_CAT_ID":55806,"ELEMENT_SET_NO":999,"REV_AT_EPOCH":14716,"BSTAR":0.00018683343,"MEAN_MOTION_DOT":8.8e-7,"MEAN_MOTION_DDOT":0},{"OBJECT_NAME":"ONEWEB-0643","OBJECT_ID":"2023-029M","EPOCH":"2026-03-20T03:53:52.402848","MEAN_MOTION":13.14503528,"ECCENTRICITY":0.00023562,"INCLINATION":87.8962,"RA_OF_ASC_NODE":307.5054,"ARG_OF_PERICENTER":84.0524,"MEAN_ANOMALY":276.0874,"EPHEMERIS_TYPE":0,"CLASSIFICATION_TYPE":"U","NORAD_CAT_ID":55807,"ELEMENT_SET_NO":999,"REV_AT_EPOCH":14769,"BSTAR":0.00061975184,"MEAN_MOTION_DOT":2.43e-6,"MEAN_MOTION_DDOT":0},{"OBJECT_NAME":"ONEWEB-0644","OBJECT_ID":"2023-029N","EPOCH":"2026-03-20T03:51:00.522144","MEAN_MOTION":13.19726171,"ECCENTRICITY":0.00020607,"INCLINATION":87.9205,"RA_OF_ASC_NODE":322.7284,"ARG_OF_PERICENTER":83.8628,"MEAN_ANOMALY":276.274,"EPHEMERIS_TYPE":0,"CLASSIFICATION_TYPE":"U","NORAD_CAT_ID":55808,"ELEMENT_SET_NO":999,"REV_AT_EPOCH":14716,"BSTAR":0.0001080584,"MEAN_MOTION_DOT":5.6e-7,"MEAN_MOTION_DDOT":0},{"OBJECT_NAME":"ONEWEB-0645","OBJECT_ID":"2023-029P","EPOCH":"2026-03-20T04:22:50.325024","MEAN_MOTION":13.19726182,"ECCENTRICITY":0.00018933,"INCLINATION":87.921,"RA_OF_ASC_NODE":322.7172,"ARG_OF_PERICENTER":96.2297,"MEAN_ANOMALY":263.9052,"EPHEMERIS_TYPE":0,"CLASSIFICATION_TYPE":"U","NORAD_CAT_ID":55809,"ELEMENT_SET_NO":999,"REV_AT_EPOCH":14716,"BSTAR":0.00013990759,"MEAN_MOTION_DOT":6.9e-7,"MEAN_MOTION_DDOT":0},{"OBJECT_NAME":"ONEWEB-0646","OBJECT_ID":"2023-029Q","EPOCH":"2026-03-20T04:47:51.227808","MEAN_MOTION":13.19724706,"ECCENTRICITY":0.0001996,"INCLINATION":87.9214,"RA_OF_ASC_NODE":322.7139,"ARG_OF_PERICENTER":83.4744,"MEAN_ANOMALY":276.6616,"EPHEMERIS_TYPE":0,"CLASSIFICATION_TYPE":"U","NORAD_CAT_ID":55810,"ELEMENT_SET_NO":999,"REV_AT_EPOCH":14715,"BSTAR":7.9604824e-5,"MEAN_MOTION_DOT":4.5e-7,"MEAN_MOTION_DDOT":0},{"OBJECT_NAME":"ONEWEB-0648","OBJECT_ID":"2023-029R","EPOCH":"2026-03-20T03:08:12.161184","MEAN_MOTION":13.14503573,"ECCENTRICITY":0.00023711,"INCLINATION":87.897,"RA_OF_ASC_NODE":307.477,"ARG_OF_PERICENTER":102.8791,"MEAN_ANOMALY":257.2604,"EPHEMERIS_TYPE":0,"CLASSIFICATION_TYPE":"U","NORAD_CAT_ID":55811,"ELEMENT_SET_NO":999,"REV_AT_EPOCH":14769,"BSTAR":-0.00026995376,"MEAN_MOTION_DOT":-8.7e-7,"MEAN_MOTION_DDOT":0},{"OBJECT_NAME":"ONEWEB-0649","OBJECT_ID":"2023-029S","EPOCH":"2026-03-20T05:24:14.697504","MEAN_MOTION":13.19725495,"ECCENTRICITY":0.00018603,"INCLINATION":87.9216,"RA_OF_ASC_NODE":322.7057,"ARG_OF_PERICENTER":89.9217,"MEAN_ANOMALY":270.2129,"EPHEMERIS_TYPE":0,"CLASSIFICATION_TYPE":"U","NORAD_CAT_ID":55812,"ELEMENT_SET_NO":999,"REV_AT_EPOCH":14719,"BSTAR":0.00023297216,"MEAN_MOTION_DOT":1.06e-6,"MEAN_MOTION_DDOT":0},{"OBJECT_NAME":"ONEWEB-0650","OBJECT_ID":"2023-029T","EPOCH":"2026-03-20T05:17:25.431072","MEAN_MOTION":13.19725346,"ECCENTRICITY":0.00021465,"INCLINATION":87.9214,"RA_OF_ASC_NODE":322.7098,"ARG_OF_PERICENTER":87.4988,"MEAN_ANOMALY":272.639,"EPHEMERIS_TYPE":0,"CLASSIFICATION_TYPE":"U","NORAD_CAT_ID":55813,"ELEMENT_SET_NO":999,"REV_AT_EPOCH":14716,"BSTAR":0.00020171915,"MEAN_MOTION_DOT":9.4e-7,"MEAN_MOTION_DDOT":0},{"OBJECT_NAME":"ONEWEB-0652","OBJECT_ID":"2023-029U","EPOCH":"2026-03-20T04:30:24.309504","MEAN_MOTION":13.14503089,"ECCENTRICITY":0.00015565,"INCLINATION":87.896,"RA_OF_ASC_NODE":307.4805,"ARG_OF_PERICENTER":79.1902,"MEAN_ANOMALY":280.9403,"EPHEMERIS_TYPE":0,"CLASSIFICATION_TYPE":"U","NORAD_CAT_ID":55814,"ELEMENT_SET_NO":999,"REV_AT_EPOCH":14767,"BSTAR":-0.00046468269,"MEAN_MOTION_DOT":-1.59e-6,"MEAN_MOTION_DDOT":0},{"OBJECT_NAME":"ONEWEB-0653","OBJECT_ID":"2023-029V","EPOCH":"2026-03-20T04:07:34.161024","MEAN_MOTION":13.14503313,"ECCENTRICITY":0.00014876,"INCLINATION":87.8971,"RA_OF_ASC_NODE":307.4748,"ARG_OF_PERICENTER":87.0782,"MEAN_ANOMALY":273.0518,"EPHEMERIS_TYPE":0,"CLASSIFICATION_TYPE":"U","NORAD_CAT_ID":55815,"ELEMENT_SET_NO":999,"REV_AT_EPOCH":14770,"BSTAR":0.00023498124,"MEAN_MOTION_DOT":1.0e-6,"MEAN_MOTION_DDOT":0},{"OBJECT_NAME":"ONEWEB-0654","OBJECT_ID":"2023-029W","EPOCH":"2026-03-20T02:11:06.289728","MEAN_MOTION":13.14503409,"ECCENTRICITY":0.00013561,"INCLINATION":87.8962,"RA_OF_ASC_NODE":307.4899,"ARG_OF_PERICENTER":76.8321,"MEAN_ANOMALY":283.296,"EPHEMERIS_TYPE":0,"CLASSIFICATION_TYPE":"U","NORAD_CAT_ID":55816,"ELEMENT_SET_NO":999,"REV_AT_EPOCH":14771,"BSTAR":0.00052462716,"MEAN_MOTION_DOT":2.07e-6,"MEAN_MOTION_DDOT":0},{"OBJECT_NAME":"ONEWEB-0656","OBJECT_ID":"2023-029X","EPOCH":"2026-03-20T00:55:13.251648","MEAN_MOTION":13.20770973,"ECCENTRICITY":0.00012855,"INCLINATION":87.9156,"RA_OF_ASC_NODE":292.2297,"ARG_OF_PERICENTER":79.0316,"MEAN_ANOMALY":281.0962,"EPHEMERIS_TYPE":0,"CLASSIFICATION_TYPE":"U","NORAD_CAT_ID":55817,"ELEMENT_SET_NO":999,"REV_AT_EPOCH":14938,"BSTAR":-8.8672632e-5,"MEAN_MOTION_DOT":-2.3e-7,"MEAN_MOTION_DDOT":0},{"OBJECT_NAME":"ONEWEB-0657","OBJECT_ID":"2023-029Y","EPOCH":"2026-03-20T05:10:36.721920","MEAN_MOTION":13.19726428,"ECCENTRICITY":0.00018817,"INCLINATION":87.9212,"RA_OF_ASC_NODE":322.7093,"ARG_OF_PERICENTER":59.283,"MEAN_ANOMALY":300.8488,"EPHEMERIS_TYPE":0,"CLASSIFICATION_TYPE":"U","NORAD_CAT_ID":55818,"ELEMENT_SET_NO":999,"REV_AT_EPOCH":14717,"BSTAR":0.00015490965,"MEAN_MOTION_DOT":7.5e-7,"MEAN_MOTION_DDOT":0},{"OBJECT_NAME":"ONEWEB-0658","OBJECT_ID":"2023-029Z","EPOCH":"2026-03-20T05:03:47.439072","MEAN_MOTION":13.19725843,"ECCENTRICITY":0.00021001,"INCLINATION":87.9224,"RA_OF_ASC_NODE":322.6783,"ARG_OF_PERICENTER":85.1705,"MEAN_ANOMALY":274.9668,"EPHEMERIS_TYPE":0,"CLASSIFICATION_TYPE":"U","NORAD_CAT_ID":55819,"ELEMENT_SET_NO":999,"REV_AT_EPOCH":14718,"BSTAR":-1.8e-6,"MEAN_MOTION_DOT":1.2e-7,"MEAN_MOTION_DDOT":0},{"OBJECT_NAME":"ONEWEB-0660","OBJECT_ID":"2023-029AA","EPOCH":"2026-03-20T03:28:44.503392","MEAN_MOTION":13.14504572,"ECCENTRICITY":0.00016921,"INCLINATION":87.897,"RA_OF_ASC_NODE":307.4667,"ARG_OF_PERICENTER":95.1542,"MEAN_ANOMALY":264.9781,"EPHEMERIS_TYPE":0,"CLASSIFICATION_TYPE":"U","NORAD_CAT_ID":55820,"ELEMENT_SET_NO":999,"REV_AT_EPOCH":14770,"BSTAR":0.00023597287,"MEAN_MOTION_DOT":1.0e-6,"MEAN_MOTION_DDOT":0},{"OBJECT_NAME":"ONEWEB-0661","OBJECT_ID":"2023-029AB","EPOCH":"2026-03-20T04:18:58.530240","MEAN_MOTION":13.14503748,"ECCENTRICITY":0.00015755,"INCLINATION":87.8959,"RA_OF_ASC_NODE":307.5149,"ARG_OF_PERICENTER":95.0626,"MEAN_ANOMALY":265.0683,"EPHEMERIS_TYPE":0,"CLASSIFICATION_TYPE":"U","NORAD_CAT_ID":55821,"ELEMENT_SET_NO":999,"REV_AT_EPOCH":14769,"BSTAR":-3.228429e-6,"MEAN_MOTION_DOT":1.2e-7,"MEAN_MOTION_DDOT":0},{"OBJECT_NAME":"ONEWEB-0662","OBJECT_ID":"2023-029AC","EPOCH":"2026-03-20T03:19:36.187392","MEAN_MOTION":13.14503275,"ECCENTRICITY":0.00017058,"INCLINATION":87.8959,"RA_OF_ASC_NODE":307.5303,"ARG_OF_PERICENTER":95.2647,"MEAN_ANOMALY":264.8677,"EPHEMERIS_TYPE":0,"CLASSIFICATION_TYPE":"U","NORAD_CAT_ID":55822,"ELEMENT_SET_NO":999,"REV_AT_EPOCH":14773,"BSTAR":1.8434687e-5,"MEAN_MOTION_DOT":2.0e-7,"MEAN_MOTION_DDOT":0}]
