ONEWEB-0642             
1 55806U 23029L   26079.16515930  .00000088  00000+0  18683-3 0  9998
2 55806  87.9214 322.7215 0002547  88.7381 271.4044 13.19724943147166
ONEWEB-0643             
1 55807U 23029M   26079.16241207  .00000243  00000+0  61975-3 0  9997
2 55807  87.8962 307.5054 0002356  84.0524 276.0874 13.14503528147693
ONEWEB-0644             
1 55808U 23029N   26079.16042271  .00000056  00000+0  10806-3 0  9997
2 55808  87.9205 322.7284 0002060  83.8628 276.2740 13.19726171147165
ONEWEB-0645             
1 55809U 23029P   26079.18252691  .00000069  00000+0  13991-3 0  9991
2 55809  87.9210 322.7172 0001893  96.2297 263.9052 13.19726182147162
ONEWEB-0646             
1 55810U 23029Q   26079.19989847  .00000045  00000+0  79605-4 0  9993
2 55810  87.9214 322.7139 0001996  83.4744 276.6616 13.19724706147156
ONEWEB-0648             
1 55811U 23029R   26079.13069631 -.00000087  00000+0 -26995-3 0  9999
2 55811  87.8970 307.4770 0002371 102.8791 257.2604 13.14503573147695
ONEWEB-0649             
1 55812U 23029S   26079.22517011  .00000106  00000+0  23297-3 0  9992
2 55812  87.9216 322.7057 0001860  89.9217 270.2129 13.19725495147194
ONEWEB-0650             
1 55813U 23029T   26079.22043323  .00000094  00000+0  20172-3 0  9998
2 55813  87.9214 322.7098 0002146  87.4988 272.6390 13.19725346147162
ONEWEB-0652             
1 55814U 23029U   26079.18778136 -.00000159  00000+0 -46468-3 0  9991
2 55814  87.8960 307.4805 0001556  79.1902 280.9403 13.14503089147670
ONEWEB-0653             
1 55815U 23029V   26079.17192316  .00000100  00000+0  23498-3 0  9993
2 55815  87.8971 307.4748 0001487  87.0782 273.0518 13.14503313147700
ONEWEB-0654             
1 55816U 23029W   26079.09104502  .00000207  00000+0  52463-3 0  9997
2 55816  87.8962 307.4899 0001356  76.8321 283.2960 13.14503409147719
ONEWEB-0656             
1 55817U 23029X   26079.03834782 -.00000023  00000+0 -88673-4 0  9993
2 55817  87.9156 292.2297 0001285  79.0316 281.0962 13.20770973149381
ONEWEB-0657             
1 55818U 23029Y   26079.21570280  .00000075  00000+0  15491-3 0  9996
2 55818  87.9212 322.7093 0001881  59.2830 300.8488 13.19726428147173
ONEWEB-0658             
1 55819U 23029Z   26079.21096573  .00000012  00000+0 -18000-5 0  9998
2 55819  87.9224 322.6783 0002100  85.1705 274.9668 13.19725843147188
ONEWEB-0660             
1 55820U 23029AA  26079.14495953  .00000100  00000+0  23597-3 0  9999
2 55820  87.8970 307.4667 0001692  95.1542 264.9781 13.14504572147706
ONEWEB-0661             
1 55821U 23029AB  26079.17984410  .00000012  00000+0 -32284-5 0  9992
2 55821  87.8959 307.5149 0001575  95.0626 265.0683 13.14503748147697
ONEWEB-0662             
1 55822U 23029AC  26079.13861328  .00000020  00000+0  18435-4 0  9990
2 55822  87.8959 307.5303 0001705  95.2647 264.8677 13.14503275147730
